{"fetched_at":"2026-07-12T07:15:21.624Z","source":"https://celestrak.org/NORAD/elements/gp.php?GROUP=planet&FORMAT=JSON","constellation":"superdove","records":[{"OBJECT_NAME":"FLOCK 4G-25","OBJECT_ID":"2025-009AP","EPOCH":"2026-07-11T18:52:13.386720","CLASSIFICATION_TYPE":"U","MEAN_MOTION":15.29963277,"ECCENTRICITY":0.00021464,"INCLINATION":97.4017,"RA_OF_ASC_NODE":274.7622,"ARG_OF_PERICENTER":170.4881,"MEAN_ANOMALY":189.64,"EPHEMERIS_TYPE":0,"NORAD_CAT_ID":62646,"ELEMENT_SET_NO":999,"REV_AT_EPOCH":8268,"BSTAR":0.00023004765,"MEAN_MOTION_DOT":0.00006597,"MEAN_MOTION_DDOT":0},{"OBJECT_NAME":"FLOCK 4G-23","OBJECT_ID":"2025-009AQ","EPOCH":"2026-07-11T18:32:14.259264","CLASSIFICATION_TYPE":"U","MEAN_MOTION":15.34578399,"ECCENTRICITY":0.00035123,"INCLINATION":97.3897,"RA_OF_ASC_NODE":274.4507,"ARG_OF_PERICENTER":167.0832,"MEAN_ANOMALY":193.0502,"EPHEMERIS_TYPE":0,"NORAD_CAT_ID":62647,"ELEMENT_SET_NO":999,"REV_AT_EPOCH":8269,"BSTAR":0.00071318871,"MEAN_MOTION_DOT":0.00023864,"MEAN_MOTION_DDOT":0},{"OBJECT_NAME":"FLOCK 4G-34","OBJECT_ID":"2025-009AT","EPOCH":"2026-07-11T17:23:37.467744","CLASSIFICATION_TYPE":"U","MEAN_MOTION":15.29731657,"ECCENTRICITY":0.0002043,"INCLINATION":97.3967,"RA_OF_ASC_NODE":274.1914,"ARG_OF_PERICENTER":170.273,"MEAN_ANOMALY":189.8551,"EPHEMERIS_TYPE":0,"NORAD_CAT_ID":62650,"ELEMENT_SET_NO":999,"REV_AT_EPOCH":8266,"BSTAR":0.00021579876,"MEAN_MOTION_DOT":0.00006139,"MEAN_MOTION_DDOT":0},{"OBJECT_NAME":"FLOCK 4G-21","OBJECT_ID":"2025-009AU","EPOCH":"2026-07-11T18:45:03.834432","CLASSIFICATION_TYPE":"U","MEAN_MOTION":15.32712025,"ECCENTRICITY":0.00027763,"INCLINATION":97.3994,"RA_OF_ASC_NODE":275.2334,"ARG_OF_PERICENTER":201.954,"MEAN_ANOMALY":158.1584,"EPHEMERIS_TYPE":0,"NORAD_CAT_ID":62651,"ELEMENT_SET_NO":999,"REV_AT_EPOCH":8272,"BSTAR":0.00069569645,"MEAN_MOTION_DOT":0.00021939,"MEAN_MOTION_DDOT":0},{"OBJECT_NAME":"FLOCK 4G-31","OBJECT_ID":"2025-009AV","EPOCH":"2026-07-11T18:06:02.853216","CLASSIFICATION_TYPE":"U","MEAN_MOTION":15.29535693,"ECCENTRICITY":0.00015879,"INCLINATION":97.3969,"RA_OF_ASC_NODE":274.1932,"ARG_OF_PERICENTER":163.8225,"MEAN_ANOMALY":196.3067,"EPHEMERIS_TYPE":0,"NORAD_CAT_ID":62652,"ELEMENT_SET_NO":999,"REV_AT_EPOCH":8266,"BSTAR":0.00020669505,"MEAN_MOTION_DOT":0.00005841,"MEAN_MOTION_DDOT":0},{"OBJECT_NAME":"FLOCK 4G-4","OBJECT_ID":"2025-009BC","EPOCH":"2026-07-11T19:08:34.607328","CLASSIFICATION_TYPE":"U","MEAN_MOTION":15.3199126,"ECCENTRICITY":0.00043019,"INCLINATION":97.395,"RA_OF_ASC_NODE":274.0368,"ARG_OF_PERICENTER":201.9774,"MEAN_ANOMALY":158.1284,"EPHEMERIS_TYPE":0,"NORAD_CAT_ID":62659,"ELEMENT_SET_NO":999,"REV_AT_EPOCH":14027,"BSTAR":0.00067416777,"MEAN_MOTION_DOT":0.00020784,"MEAN_MOTION_DDOT":0},{"OBJECT_NAME":"FLOCK 4G-6","OBJECT_ID":"2025-009BD","EPOCH":"2026-07-11T19:25:55.550208","CLASSIFICATION_TYPE":"U","MEAN_MOTION":15.29936745,"ECCENTRICITY":0.00025687,"INCLINATION":97.3945,"RA_OF_ASC_NODE":274.0996,"ARG_OF_PERICENTER":214.7431,"MEAN_ANOMALY":145.3642,"EPHEMERIS_TYPE":0,"NORAD_CAT_ID":62660,"ELEMENT_SET_NO":999,"REV_AT_EPOCH":14026,"BSTAR":0.00018741208,"MEAN_MOTION_DOT":0.00005355,"MEAN_MOTION_DDOT":0},{"OBJECT_NAME":"FLOCK 4G-2","OBJECT_ID":"2025-009BE","EPOCH":"2026-07-11T19:17:49.089696","CLASSIFICATION_TYPE":"U","MEAN_MOTION":15.30284942,"ECCENTRICITY":0.00034524,"INCLINATION":97.4013,"RA_OF_ASC_NODE":274.731,"ARG_OF_PERICENTER":215.2412,"MEAN_ANOMALY":144.8601,"EPHEMERIS_TYPE":0,"NORAD_CAT_ID":62661,"ELEMENT_SET_NO":999,"REV_AT_EPOCH":14029,"BSTAR":0.0002190944,"MEAN_MOTION_DOT":0.00006342,"MEAN_MOTION_DDOT":0},{"OBJECT_NAME":"FLOCK 4G-5","OBJECT_ID":"2025-009BG","EPOCH":"2026-07-11T17:38:13.128288","CLASSIFICATION_TYPE":"U","MEAN_MOTION":15.30867722,"ECCENTRICITY":0.00031391,"INCLINATION":97.4029,"RA_OF_ASC_NODE":275.0584,"ARG_OF_PERICENTER":192.4048,"MEAN_ANOMALY":167.7116,"EPHEMERIS_TYPE":0,"NORAD_CAT_ID":62663,"ELEMENT_SET_NO":999,"REV_AT_EPOCH":8269,"BSTAR":0.00019288228,"MEAN_MOTION_DOT":0.00005676,"MEAN_MOTION_DDOT":0},{"OBJECT_NAME":"FLOCK 4G-1","OBJECT_ID":"2025-009BK","EPOCH":"2026-07-11T18:55:36.805152","CLASSIFICATION_TYPE":"U","MEAN_MOTION":15.3014522,"ECCENTRICITY":0.00036442,"INCLINATION":97.4026,"RA_OF_ASC_NODE":274.6947,"ARG_OF_PERICENTER":211.5211,"MEAN_ANOMALY":148.5812,"EPHEMERIS_TYPE":0,"NORAD_CAT_ID":62666,"ELEMENT_SET_NO":999,"REV_AT_EPOCH":8267,"BSTAR":0.00021918119,"MEAN_MOTION_DOT":0.00006318,"MEAN_MOTION_DDOT":0},{"OBJECT_NAME":"FLOCK 4G-14","OBJECT_ID":"2025-009BL","EPOCH":"2026-07-11T18:04:45.418080","CLASSIFICATION_TYPE":"U","MEAN_MOTION":15.2969036,"ECCENTRICITY":0.00038108,"INCLINATION":97.4028,"RA_OF_ASC_NODE":274.4584,"ARG_OF_PERICENTER":206.8955,"MEAN_ANOMALY":153.2088,"EPHEMERIS_TYPE":0,"NORAD_CAT_ID":62667,"ELEMENT_SET_NO":999,"REV_AT_EPOCH":8265,"BSTAR":0.00021584155,"MEAN_MOTION_DOT":0.00006133,"MEAN_MOTION_DDOT":0},{"OBJECT_NAME":"FLOCK 4G-10","OBJECT_ID":"2025-009BP","EPOCH":"2026-07-11T18:20:48.236352","CLASSIFICATION_TYPE":"U","MEAN_MOTION":15.29791178,"ECCENTRICITY":0.00033549,"INCLINATION":97.3922,"RA_OF_ASC_NODE":273.7713,"ARG_OF_PERICENTER":225.9085,"MEAN_ANOMALY":134.188,"EPHEMERIS_TYPE":0,"NORAD_CAT_ID":62670,"ELEMENT_SET_NO":999,"REV_AT_EPOCH":14029,"BSTAR":0.00022784801,"MEAN_MOTION_DOT":0.00006499,"MEAN_MOTION_DDOT":0},{"OBJECT_NAME":"FLOCK 4G-36","OBJECT_ID":"2025-009BU","EPOCH":"2026-07-11T18:12:50.028768","CLASSIFICATION_TYPE":"U","MEAN_MOTION":15.29763569,"ECCENTRICITY":0.0003908,"INCLINATION":97.4016,"RA_OF_ASC_NODE":274.3852,"ARG_OF_PERICENTER":213.4775,"MEAN_ANOMALY":146.6219,"EPHEMERIS_TYPE":0,"NORAD_CAT_ID":62675,"ELEMENT_SET_NO":999,"REV_AT_EPOCH":8265,"BSTAR":0.00022402088,"MEAN_MOTION_DOT":0.00006383,"MEAN_MOTION_DDOT":0},{"OBJECT_NAME":"FLOCK 4G-15","OBJECT_ID":"2025-009BX","EPOCH":"2026-07-11T18:23:06.545472","CLASSIFICATION_TYPE":"U","MEAN_MOTION":15.29854361,"ECCENTRICITY":0.00042206,"INCLINATION":97.4018,"RA_OF_ASC_NODE":274.5351,"ARG_OF_PERICENTER":209.9814,"MEAN_ANOMALY":150.1186,"EPHEMERIS_TYPE":0,"NORAD_CAT_ID":62678,"ELEMENT_SET_NO":999,"REV_AT_EPOCH":14030,"BSTAR":0.00023300102,"MEAN_MOTION_DOT":0.00006661,"MEAN_MOTION_DDOT":0},{"OBJECT_NAME":"FLOCK 4G-30","OBJECT_ID":"2025-009BY","EPOCH":"2026-07-11T17:14:22.222464","CLASSIFICATION_TYPE":"U","MEAN_MOTION":15.33775959,"ECCENTRICITY":0.00039994,"INCLINATION":97.392,"RA_OF_ASC_NODE":273.9931,"ARG_OF_PERICENTER":207.8914,"MEAN_ANOMALY":152.2115,"EPHEMERIS_TYPE":0,"NORAD_CAT_ID":62679,"ELEMENT_SET_NO":999,"REV_AT_EPOCH":14030,"BSTAR":0.00070348398,"MEAN_MOTION_DOT":0.00022947,"MEAN_MOTION_DDOT":0},{"OBJECT_NAME":"FLOCK 4G-18","OBJECT_ID":"2025-009BZ","EPOCH":"2026-07-11T19:03:27.900288","CLASSIFICATION_TYPE":"U","MEAN_MOTION":15.32046002,"ECCENTRICITY":0.00057257,"INCLINATION":97.4019,"RA_OF_ASC_NODE":274.4687,"ARG_OF_PERICENTER":223.1109,"MEAN_ANOMALY":136.9685,"EPHEMERIS_TYPE":0,"NORAD_CAT_ID":62680,"ELEMENT_SET_NO":999,"REV_AT_EPOCH":14030,"BSTAR":0.00071539216,"MEAN_MOTION_DOT":0.00022106,"MEAN_MOTION_DDOT":0}]}
