FLOCK 4G-25             
1 62646U 25009AP  26192.78626605  .00006597  00000+0  23005-3 0  9999
2 62646  97.4017 274.7622 0002146 170.4881 189.6400 15.29963277 82689
FLOCK 4G-23             
1 62647U 25009AQ  26192.77238726  .00023864  00000+0  71319-3 0  9999
2 62647  97.3897 274.4507 0003512 167.0832 193.0502 15.34578399 82696
FLOCK 4G-34             
1 62650U 25009AT  26192.72473921  .00006139  00000+0  21580-3 0  9997
2 62650  97.3967 274.1914 0002043 170.2730 189.8551 15.29731657 82664
FLOCK 4G-21             
1 62651U 25009AU  26192.78129438  .00021939  00000+0  69570-3 0  9991
2 62651  97.3994 275.2334 0002776 201.9540 158.1584 15.32712025 82721
FLOCK 4G-31             
1 62652U 25009AV  26192.75419969  .00005841  00000+0  20670-3 0  9992
2 62652  97.3969 274.1932 0001587 163.8225 196.3067 15.29535693 82664
FLOCK 4G-4              
1 62659U 25009BC  26192.79762277  .00020784  00000+0  67417-3 0  9999
2 62659  97.3950 274.0368 0004301 201.9774 158.1284 15.31991260140271
FLOCK 4G-6              
1 62660U 25009BD  26192.80967072  .00005355  00000+0  18741-3 0  9996
2 62660  97.3945 274.0996 0002568 214.7431 145.3642 15.29936745140268
FLOCK 4G-2              
1 62661U 25009BE  26192.80404039  .00006342  00000+0  21909-3 0  9993
2 62661  97.4013 274.7310 0003452 215.2412 144.8601 15.30284942140290
FLOCK 4G-5              
1 62663U 25009BG  26192.73487417  .00005676  00000+0  19288-3 0  9994
2 62663  97.4029 275.0584 0003139 192.4048 167.7116 15.30867722 82696
FLOCK 4G-1              
1 62666U 25009BK  26192.78862043  .00006318  00000+0  21918-3 0  9991
2 62666  97.4026 274.6947 0003644 211.5211 148.5812 15.30145220 82670
FLOCK 4G-14             
1 62667U 25009BL  26192.75330345  .00006133  00000+0  21584-3 0  9998
2 62667  97.4028 274.4584 0003810 206.8955 153.2088 15.29690360 82659
FLOCK 4G-10             
1 62670U 25009BP  26192.76444718  .00006499  00000+0  22785-3 0  9992
2 62670  97.3922 273.7713 0003354 225.9085 134.1880 15.29791178140292
FLOCK 4G-36             
1 62675U 25009BU  26192.75891237  .00006383  00000+0  22402-3 0  9996
2 62675  97.4016 274.3852 0003908 213.4775 146.6219 15.29763569 82658
FLOCK 4G-15             
1 62678U 25009BX  26192.76604798  .00006661  00000+0  23300-3 0  9991
2 62678  97.4018 274.5351 0004220 209.9814 150.1186 15.29854361140302
FLOCK 4G-30             
1 62679U 25009BY  26192.71831276  .00022947  00000+0  70348-3 0  9999
2 62679  97.3920 273.9931 0003999 207.8914 152.2115 15.33775959140306
FLOCK 4G-18             
1 62680U 25009BZ  26192.79407292  .00022106  00000+0  71539-3 0  9996
2 62680  97.4019 274.4687 0005725 223.1109 136.9685 15.32046002140308
